*******************************************************************************
 Revised: Mar 12, 2021           Europa / (Jupiter)                         502

 SATELLITE PHYSICAL PROPERTIES:
  Mean radius (km)       = 1560     +- 0.5    Density (g cm^-3)= 3.013 +- 0.005
  GM   (km^3/s^2)        = 3202.7121+- 0.0054 Geometric Albedo = 0.67 +/- 0.03  

 SATELLITE ORBIT (at J2000.0 epoch, 2000-Jan-1.5):
  Semi-major axis, a (km) ~ 671,000           Orbital period   ~ 3.55 d
  Eccentricity, e         ~ 0.00981        Rotational period   = Synchronous
  Inclination, i  (deg)   ~ 0.462
*******************************************************************************
 
 
*******************************************************************************
Ephemeris / WWW_USER Thu Apr  8 14:47:00 2021 Pasadena, USA      / Horizons
*******************************************************************************
Target body name: Europa (502)                    {source: jup365_merged}
Center body name: Jupiter (599)                   {source: jup365_merged}
Center-site name: BODY CENTER
*******************************************************************************
Start time      : A.D. 1986-Apr-24 12:00:00.0000 TDB
Stop  time      : A.D. 2013-Sep-09 12:00:00.0000 TDB
Step-size       : 144000 minutes
*******************************************************************************
Center geodetic : 0.00000000,0.00000000,0.0000000 {W-lon(deg),Lat(deg),Alt(km)}
Center cylindric: 0.00000000,0.00000000,0.0000000 {W-lon(deg),Dxy(km),Dz(km)}
Center radii    : 71492.0 x 71492.0 x 66854.0 km  {Equator, meridian, pole}    
Output units    : AU-D
Output type     : LT+S CORRECTED cartesian states
Output format   : 2 (position and velocity)
Reference frame : ICRF
*******************************************************************************
JDTDB
   X     Y     Z
   VX    VY    VZ
*******************************************************************************
$$SOE
2453945.000000000 = A.D. 2006-Jul-28 12:00:00.0000 TDB 
 X =-3.929534421751989E-03 Y = 1.981125200926633E-03 Z = 9.127455055077721E-04
 VX=-3.777972536366229E-03 VY=-6.280703277608643E-03 VZ=-3.006582432667020E-03
2454045.000000000 = A.D. 2006-Nov-05 12:00:00.0000 TDB 
 X =-3.851208682888935E-03 Y =-2.002010862497401E-03 Z =-9.774426434690964E-04
 VX= 3.975167309632817E-03 VY=-6.282615319557007E-03 VZ=-2.957814885000143E-03
2454145.000000000 = A.D. 2007-Feb-13 12:00:00.0000 TDB 
 X =-2.061562338386937E-04 Y =-4.080612763904472E-03 Z =-1.942443585857880E-03
 VX= 7.860102423513298E-03 VY=-3.651198186560637E-04 VZ=-1.203193986964071E-04
2454245.000000000 = A.D. 2007-May-24 12:00:00.0000 TDB 
 X = 3.596959292072613E-03 Y =-2.402127210341682E-03 Z =-1.119788907039555E-03
 VX= 4.671861471022343E-03 VY= 5.815238550651483E-03 VZ= 2.800698714990378E-03
2454345.000000000 = A.D. 2007-Sep-01 12:00:00.0000 TDB 
 X = 4.113565530611431E-03 Y = 1.565455320210344E-03 Z = 7.741102242612704E-04
 VX=-3.046108784317219E-03 VY= 6.651953186347994E-03 VZ= 3.151492437131911E-03
2454445.000000000 = A.D. 2007-Dec-10 12:00:00.0000 TDB 
 X = 8.553249645076201E-04 Y = 4.010165829095054E-03 Z = 1.920140314179926E-03
 VX=-7.725367108900294E-03 VY= 1.342144789287542E-03 VZ= 5.886128365780823E-04
2454545.000000000 = A.D. 2008-Mar-19 12:00:00.0000 TDB 
 X =-3.218960727958122E-03 Y = 2.782952386353103E-03 Z = 1.308435437089024E-03
 VX=-5.493811756563797E-03 VY=-5.228174824300297E-03 VZ=-2.536128068264011E-03
2454645.000000000 = A.D. 2008-Jun-27 12:00:00.0000 TDB 
 X =-4.330855628161553E-03 Y =-1.066697724341141E-03 Z =-5.402779230265147E-04
 VX= 2.040656878952494E-03 VY=-6.912701100665529E-03 VZ=-3.294089550241487E-03
2454745.000000000 = A.D. 2008-Oct-05 12:00:00.0000 TDB 
 X =-1.463016901557172E-03 Y =-3.844769380594453E-03 Z =-1.852206315640489E-03
 VX= 7.484341578799075E-03 VY=-2.277598713473462E-03 VZ=-1.039164513955872E-03
2454845.000000000 = A.D. 2009-Jan-13 12:00:00.0000 TDB 
 X = 2.819159697442449E-03 Y =-3.102703895197066E-03 Z =-1.468357206468383E-03
 VX= 6.196024813009936E-03 VY= 4.566333912267143E-03 VZ= 2.234476431617608E-03
2454945.000000000 = A.D. 2009-Apr-23 12:00:00.0000 TDB 
 X = 4.475223427549835E-03 Y = 5.232864428204875E-04 Z = 2.838378943211239E-04
 VX=-9.825023216981357E-04 VY= 7.056086453672527E-03 VZ= 3.381303771028634E-03
2455045.000000000 = A.D. 2009-Aug-01 12:00:00.0000 TDB 
 X = 2.021366439219438E-03 Y = 3.607625150216575E-03 Z = 1.749498569699403E-03
 VX=-7.111602892675466E-03 VY= 3.179811062873935E-03 VZ= 1.475973093138397E-03
2455145.000000000 = A.D. 2009-Nov-09 12:00:00.0000 TDB 
 X =-2.388279187545651E-03 Y = 3.394636143154243E-03 Z = 1.615509031812766E-03
 VX=-6.769860305702003E-03 VY=-3.807789883730954E-03 VZ=-1.884688351008953E-03
2455245.000000000 = A.D. 2010-Feb-17 12:00:00.0000 TDB 
 X =-4.527685685550500E-03 Y = 5.175052051093588E-05 Z =-1.077576864241732E-05
 VX=-8.626597405998599E-05 VY=-7.082839660875930E-03 VZ=-3.413118799649685E-03
2455345.000000000 = A.D. 2010-May-28 12:00:00.0000 TDB 
 X =-2.514554888260316E-03 Y =-3.315196635127314E-03 Z =-1.619500893667820E-03
 VX= 6.627536772457462E-03 VY=-4.014112306317982E-03 VZ=-1.882013045227577E-03
2455445.000000000 = A.D. 2010-Sep-05 12:00:00.0000 TDB 
 X = 1.899197426294228E-03 Y =-3.651267127328846E-03 Z =-1.746593204209508E-03
 VX= 7.238589325942533E-03 VY= 2.964462587292135E-03 VZ= 1.492306760929158E-03
2455545.000000000 = A.D. 2010-Dec-14 12:00:00.0000 TDB 
 X = 4.470588481636355E-03 Y =-6.340205290371672E-04 Z =-2.673050539115950E-04
 VX= 1.169398582367460E-03 VY= 7.004469613859817E-03 VZ= 3.394995612308130E-03
2455645.000000000 = A.D. 2011-Mar-24 12:00:00.0000 TDB 
 X = 2.933613159717072E-03 Y = 2.999837045494608E-03 Z = 1.477602031255538E-03
 VX=-6.034722629033418E-03 VY= 4.752412837942472E-03 VZ= 2.243581400671350E-03
2455745.000000000 = A.D. 2011-Jul-02 12:00:00.0000 TDB 
 X =-1.366664875891327E-03 Y = 3.862591418652829E-03 Z = 1.856758482050112E-03
 VX=-7.561982177731177E-03 VY=-2.073529324289055E-03 VZ=-1.074985815482672E-03
2455845.000000000 = A.D. 2011-Oct-10 12:00:00.0000 TDB 
 X =-4.317221493212021E-03 Y = 1.193053198252542E-03 Z = 5.355816786345195E-04
 VX=-2.225944525808112E-03 VY=-6.805751958045531E-03 VZ=-3.319002329521793E-03
2455945.000000000 = A.D. 2012-Jan-18 12:00:00.0000 TDB 
 X =-3.323314837281815E-03 Y =-2.641679171226872E-03 Z =-1.314634663884666E-03
 VX= 5.312446222725720E-03 VY=-5.416091121073764E-03 VZ=-2.571336001384279E-03
2456045.000000000 = A.D. 2012-Apr-27 12:00:00.0000 TDB 
 X = 7.565834851232766E-04 Y =-4.009378407320192E-03 Z =-1.937125714428078E-03
 VX= 7.778714216329576E-03 VY= 1.115073706723265E-03 VZ= 6.235647553234379E-04
2456145.000000000 = A.D. 2012-Aug-05 12:00:00.0000 TDB 
 X = 4.078472884049839E-03 Y =-1.692419060584021E-03 Z =-7.763829187851201E-04
 VX= 3.230302008621550E-03 VY= 6.512143003411949E-03 VZ= 3.197215113953062E-03
2456245.000000000 = A.D. 2012-Nov-13 12:00:00.0000 TDB 
 X = 3.659456178717821E-03 Y = 2.267620964918578E-03 Z = 1.143557990797305E-03
 VX=-4.511625602509009E-03 VY= 5.954278512950089E-03 VZ= 2.840311788913293E-03
2456345.000000000 = A.D. 2013-Feb-21 12:00:00.0000 TDB 
 X =-1.236313515863230E-04 Y = 4.072367408470008E-03 Z = 1.977831242299812E-03
 VX=-7.857797897378378E-03 VY=-1.456951685474979E-04 VZ=-1.649802008229315E-04
2456445.000000000 = A.D. 2013-Jun-01 12:00:00.0000 TDB 
 X =-3.783790164479869E-03 Y = 2.147918271061692E-03 Z = 9.972190925431478E-04
 VX=-4.176964584058724E-03 VY=-6.089320615345303E-03 VZ=-3.012918794217511E-03
2456545.000000000 = A.D. 2013-Sep-09 12:00:00.0000 TDB 
 X =-3.976882507498209E-03 Y =-1.829128479751196E-03 Z =-9.412534582749079E-04
 VX= 3.589349041081548E-03 VY=-6.398019706128443E-03 VZ=-3.066100553922097E-03
